NAVSTAR 48 (USA 151)    
1 26407U 00040A   26187.72617564  .00000089  00000+0  00000+0 0  9990
2 26407  54.8495 214.3861 0120707 302.6395  48.9523  2.00557800190330
NAVSTAR 51 (USA 166)    
1 27663U 03005A   26187.68700338  .00000089  00000+0  00000+0 0  9996
2 27663  54.8800 214.1939 0148129  53.1381  46.3257  2.00559504171709
NAVSTAR 54 (USA 177)    
1 28190U 04009A   26187.80830027 -.00000022  00000+0  00000+0 0  9998
2 28190  54.8133 274.8940 0116897 173.9696 165.7920  2.00554040163339
NAVSTAR 56 (USA 180)    
1 28474U 04045A   26187.79546740 -.00000070  00000+0  00000+0 0  9990
2 28474  55.1238 324.1069 0170043 316.8633  78.6534  2.00556743158820
NAVSTAR 57 (USA 183)    
1 28874U 05038A   26187.79797911 -.00000018  00000+0  00000+0 0  9997
2 28874  54.8622 272.3856 0128120 296.3155  65.3878  2.00564304152230
INMARSAT 4-F2           
1 28899U 05044A   26187.46055828 -.00000249  00000+0  00000+0 0  9995
2 28899   5.1182  43.6509 0003083  53.4955 136.5803  1.00271325 75714
NAVSTAR 58 (USA 190)    
1 29486U 06042A   26186.95534775  .00000079  00000+0  00000+0 0  9993
2 29486  54.7125 150.5939 0106954  54.9040 317.1581  2.00568777144775
NAVSTAR 59 (USA 192)    
1 29601U 06052A   26187.36482427  .00000088  00000+0  00000+0 0  9995
2 29601  54.9331 213.2460 0084825  90.9724 270.0564  2.00559185143794
NAVSTAR 60 (USA 196)    
1 32260U 07047A   26187.17166904 -.00000025  00000+0  00000+0 0  9995
2 32260  54.1088  79.2833 0167477  87.7884 274.1771  2.00554349137199
COSMOS 2433 [GLONASS-M] 
1 32275U 07052A   26187.62445417 -.00000046  00000+0  00000+0 0  9999
2 32275  65.5647 315.2797 0003154 200.7777 159.2204  2.13104420145472
COSMOS 2432 [GLONASS-M] 
1 32276U 07052B   26186.81204034 -.00000044  00000+0  00000+0 0  9996
2 32276  65.5814 315.4351 0007461 325.7990  74.7543  2.13103455145482
NAVSTAR 61 (USA 199)    
1 32384U 07062A   26186.48136654 -.00000019  00000+0  00000+0 0  9994
2 32384  55.0171 273.4168 0035968 166.8347 182.4853  2.00561130135871
COSMOS 2434 [GLONASS-M] 
1 32393U 07065A   26187.27894637  .00000112  00000+0  00000+0 0  9990
2 32393  64.3195 191.2718 0001278 327.0370  17.6431  2.13101434144177
COSMOS 2436 [GLONASS-M] 
1 32395U 07065C   26187.74076836  .00000116  00000+0  00000+0 0  9991
2 32395  64.3281 191.3285 0017275 353.5093 117.6939  2.13100220144148
NAVSTAR 62 (USA 201)    
1 32711U 08012A   26187.57977358  .00000078  00000+0  00000+0 0  9993
2 32711  54.4994 149.1501 0211586 248.0609 109.6589  2.00572917134148
NAVSTAR 64 (USA 206)    
1 35752U 09043A   26185.32780767 -.00000059  00000+0  00000+0 0  9993
2 35752  56.2210  26.7791 0053801  83.9262  98.4473  2.00553431123700
COSMOS 2456 [GLONASS-M] 
1 36111U 09070A   26187.81548163 -.00000020  00000+0  00000+0 0  9999
2 36111  65.0225  70.3026 0003927 335.7761 218.7724  2.13103875128849
COSMOS 2457 [GLONASS-M] 
1 36112U 09070B   26187.60227777 -.00000019  00000+0  00000+0 0  9990
2 36112  65.0079  70.1537 0003694 124.2293  33.9860  2.13101337128843
COSMOS 2460 [GLONASS-M] 
1 36402U 10007C   26186.98706171 -.00000044  00000+0  00000+0 0  9992
2 36402  65.4084 313.8306 0001904 128.1382 280.0670  2.13101949127134
NAVSTAR 65 (USA 213)    
1 36585U 10022A   26186.90073374  .00000088  00000+0  00000+0 0  9992
2 36585  54.2693 207.8082 0126546  66.1443 291.3331  2.00563324117964
BEIDOU-2 IGSO-1         
1 36828U 10036A   26187.82437029 -.00000061  00000+0  00000+0 0  9992
2 36828  54.3063 162.7828 0059267 225.2322 300.9018  1.00266641 58292
BEIDOU-2 G4             
1 37210U 10057A   26187.82028975 -.00000100  00000+0  00000+0 0  9991
2 37210   3.6924  68.8287 0005067 186.3732 124.8660  1.00271008 57486
BEIDOU-2 IGSO-2         
1 37256U 10068A   26187.66740300 -.00000202  00000+0  00000+0 0  9991
2 37256  47.5121 271.5911 0056612 213.5272 148.0884  1.00276802 56991
BEIDOU-2 IGSO-3         
1 37384U 11013A   26187.52460699 -.00000170  00000+0  00000+0 0  9993
2 37384  62.4337  39.9702 0035245 183.2519 357.0849  1.00262965 55850
GSAT-8                  
1 37605U 11022A   26187.87085006  .00000099  00000+0  00000+0 0  9991
2 37605   2.1787  81.5897 0002402 167.0325  44.8091  1.00270719 53414
BEIDOU-2 IGSO-4         
1 37763U 11038A   26187.84005391  .00000048  00000+0  00000+0 0  9993
2 37763  54.6039 165.4986 0160070 231.4311 284.4062  1.00281732 54844
GSAT0101 (GALILEO-PFM)  
1 37846U 11060A   26184.27277323 -.00000076  00000+0  00000+0 0  9992
2 37846  56.9888 341.3256 0002657  57.8189 302.2010  1.70475789 91394
GSAT0102 (GALILEO-FM2)  
1 37847U 11060B   26184.78699916 -.00000075  00000+0  00000+0 0  9994
2 37847  56.9894 341.3121 0002522  12.9231 348.3249  1.70476028 91419
COSMOS 2476 [GLONASS-M] 
1 37867U 11064A   26187.44169809 -.00000017  00000+0  00000+0 0  9995
2 37867  65.2805  72.2217 0022435 236.7935 299.3248  2.13103999114179
COSMOS 2477 [GLONASS-M] 
1 37868U 11064B   26186.77196907 -.00000014  00000+0  00000+0 0  9997
2 37868  65.2866  72.3238 0019461 238.0752 324.5330  2.13103224114150
COSMOS 2475 [GLONASS-M] 
1 37869U 11064C   26187.00592220 -.00000015  00000+0  00000+0 0  9994
2 37869  65.2937  72.3376 0025065 251.7449  85.3834  2.13102013114162
